IRIDIUM 36              
1 24967U 97056C   24162.50762238  .00000964  00000+0  31996-3 0  9992
2 24967  86.3957 329.0990 0002271  93.7019 266.4438 14.36837734398831
IRIDIUM 38              
1 25043U 97069E   24162.58681393  .00000776  00000+0  25398-3 0  9992
2 25043  86.3971  29.4375 0001034 139.5069 220.6205 14.37290628392565
IRIDIUM 42              
1 25077U 97077A   24162.56212037  .00000672  00000+0  22657-3 0  9991
2 25077  86.3976  35.1599 0001572  90.2938 269.8438 14.35589247387860
IRIDIUM 44              
1 25078U 97077B   24162.60980523  .00000858  00000+0  26957-3 0  9992
2 25078  86.3967  18.0663 0003038 123.7789 236.3699 14.39427268390239
IRIDIUM 45              
1 25104U 97082A   24162.56016899  .00010972  00000+0  61605-3 0  9996
2 25104  86.3749 225.3585 0156762 263.1062  95.2317 15.03235196396110
IRIDIUM 24              
1 25105U 97082B   24162.56734018  .00000954  00000+0  28933-3 0  9993
2 25105  86.3928 237.6708 0010162 215.7788 144.2732 14.41212007389670
IRIDIUM 51              
1 25262U 98018A   24162.49142031  .00023603  00000+0  10905-2 0  9992
2 25262  86.3955 235.2310 0144717 206.6646 152.7102 15.11110409390402
